CCSDS_OMM_VERS = 2.0
CREATION_DATE  = 
ORIGINATOR     = 

OBJECT_NAME    = SL-14 R/B
OBJECT_ID      = 1986-046B
CENTER_NAME    = EARTH
REF_FRAME      = TEME
TIME_SYSTEM    = UTC
MEAN_ELEMENT_THEORY = SGP/SGP4

EPOCH          = 2026-03-05T13:32:05.540928
MEAN_MOTION    = 14.85585893
ECCENTRICITY   = .0021742
INCLINATION    = 82.4782
RA_OF_ASC_NODE = 84.0813
ARG_OF_PERICENTER = 239.7797
MEAN_ANOMALY   = 120.1266

EPHEMERIS_TYPE = 0
CLASSIFICATION_TYPE = U
NORAD_CAT_ID   = 16792
ELEMENT_SET_NO = 999
REV_AT_EPOCH   = 12579
BSTAR          = .71559E-4
MEAN_MOTION_DOT = .645E-5
MEAN_MOTION_DDOT = 0

CCSDS_OMM_VERS = 2.0
CREATION_DATE  = 
ORIGINATOR     = 

OBJECT_NAME    = SL-14 R/B
OBJECT_ID      = 1986-055B
CENTER_NAME    = EARTH
REF_FRAME      = TEME
TIME_SYSTEM    = UTC
MEAN_ELEMENT_THEORY = SGP/SGP4

EPOCH          = 2026-03-05T16:56:40.934976
MEAN_MOTION    = 14.85638740
ECCENTRICITY   = .001853
INCLINATION    = 82.5209
RA_OF_ASC_NODE = 130.4184
ARG_OF_PERICENTER = 350.0678
MEAN_ANOMALY   = 133.4923

EPHEMERIS_TYPE = 0
CLASSIFICATION_TYPE = U
NORAD_CAT_ID   = 16882
ELEMENT_SET_NO = 999
REV_AT_EPOCH   = 11877
BSTAR          = .70192681E-4
MEAN_MOTION_DOT = .634E-5
MEAN_MOTION_DDOT = 0

CCSDS_OMM_VERS = 2.0
CREATION_DATE  = 
ORIGINATOR     = 

OBJECT_NAME    = AJISAI (EGS)
OBJECT_ID      = 1986-061A
CENTER_NAME    = EARTH
REF_FRAME      = TEME
TIME_SYSTEM    = UTC
MEAN_ELEMENT_THEORY = SGP/SGP4

EPOCH          = 2026-03-05T22:35:16.706112
MEAN_MOTION    = 12.44515607
ECCENTRICITY   = .00112608
INCLINATION    = 50.0080
RA_OF_ASC_NODE = 104.8749
ARG_OF_PERICENTER = 277.3952
MEAN_ANOMALY   = 152.3776

EPHEMERIS_TYPE = 0
CLASSIFICATION_TYPE = U
NORAD_CAT_ID   = 16908
ELEMENT_SET_NO = 999
REV_AT_EPOCH   = 46753
BSTAR          = .13981117E-3
MEAN_MOTION_DOT = -.77E-6
MEAN_MOTION_DDOT = 0

CCSDS_OMM_VERS = 2.0
CREATION_DATE  = 
ORIGINATOR     = 

OBJECT_NAME    = COSMOS 1812
OBJECT_ID      = 1987-003A
CENTER_NAME    = EARTH
REF_FRAME      = TEME
TIME_SYSTEM    = UTC
MEAN_ELEMENT_THEORY = SGP/SGP4

EPOCH          = 2026-03-06T03:08:00.778848
MEAN_MOTION    = 16.49575463
ECCENTRICITY   = .0011771
INCLINATION    = 82.4628
RA_OF_ASC_NODE = 199.5909
ARG_OF_PERICENTER = 272.0058
MEAN_ANOMALY   = 87.9898

EPHEMERIS_TYPE = 0
CLASSIFICATION_TYPE = U
NORAD_CAT_ID   = 17295
ELEMENT_SET_NO = 999
REV_AT_EPOCH   = 14391
BSTAR          = .14059E-3
MEAN_MOTION_DOT = .12040831E+0
MEAN_MOTION_DDOT = -.12829E-5

CCSDS_OMM_VERS = 2.0
CREATION_DATE  = 
ORIGINATOR     = 

OBJECT_NAME    = SL-14 R/B
OBJECT_ID      = 1987-024B
CENTER_NAME    = EARTH
REF_FRAME      = TEME
TIME_SYSTEM    = UTC
MEAN_ELEMENT_THEORY = SGP/SGP4

EPOCH          = 2026-03-05T14:22:21.549792
MEAN_MOTION    = 14.86127704
ECCENTRICITY   = .0016679
INCLINATION    = 82.5250
RA_OF_ASC_NODE = 96.6097
ARG_OF_PERICENTER = 274.7491
MEAN_ANOMALY   = 85.1820

EPHEMERIS_TYPE = 0
CLASSIFICATION_TYPE = U
NORAD_CAT_ID   = 17567
ELEMENT_SET_NO = 999
REV_AT_EPOCH   = 8752
BSTAR          = .6726E-4
MEAN_MOTION_DOT = .615E-5
MEAN_MOTION_DDOT = 0

CCSDS_OMM_VERS = 2.0
CREATION_DATE  = 
ORIGINATOR     = 

OBJECT_NAME    = COSMOS 1833
OBJECT_ID      = 1987-027A
CENTER_NAME    = EARTH
REF_FRAME      = TEME
TIME_SYSTEM    = UTC
MEAN_ELEMENT_THEORY = SGP/SGP4

EPOCH          = 2026-03-05T21:30:19.431936
MEAN_MOTION    = 14.13055669
ECCENTRICITY   = .00244527
INCLINATION    = 70.9231
RA_OF_ASC_NODE = 333.9914
ARG_OF_PERICENTER = 219.8148
MEAN_ANOMALY   = 140.1180

EPHEMERIS_TYPE = 0
CLASSIFICATION_TYPE = U
NORAD_CAT_ID   = 17589
ELEMENT_SET_NO = 999
REV_AT_EPOCH   = 978
BSTAR          = -.50299411E-4
MEAN_MOTION_DOT = -.142E-5
MEAN_MOTION_DDOT = 0

CCSDS_OMM_VERS = 2.0
CREATION_DATE  = 
ORIGINATOR     = 

OBJECT_NAME    = SL-16 R/B
OBJECT_ID      = 1987-027B
CENTER_NAME    = EARTH
REF_FRAME      = TEME
TIME_SYSTEM    = UTC
MEAN_ELEMENT_THEORY = SGP/SGP4

EPOCH          = 2026-03-05T22:49:52.917024
MEAN_MOTION    = 14.17165783
ECCENTRICITY   = .00035972
INCLINATION    = 71.0014
RA_OF_ASC_NODE = 284.3735
ARG_OF_PERICENTER = 151.0368
MEAN_ANOMALY   = 209.0956

EPHEMERIS_TYPE = 0
CLASSIFICATION_TYPE = U
NORAD_CAT_ID   = 17590
ELEMENT_SET_NO = 999
REV_AT_EPOCH   = 1481
BSTAR          = -.46207565E-4
MEAN_MOTION_DOT = -.141E-5
MEAN_MOTION_DDOT = 0

CCSDS_OMM_VERS = 2.0
CREATION_DATE  = 
ORIGINATOR     = 

OBJECT_NAME    = SL-14 R/B
OBJECT_ID      = 1987-038B
CENTER_NAME    = EARTH
REF_FRAME      = TEME
TIME_SYSTEM    = UTC
MEAN_ELEMENT_THEORY = SGP/SGP4

EPOCH          = 2026-03-05T17:26:06.134496
MEAN_MOTION    = 14.85365418
ECCENTRICITY   = .00193431
INCLINATION    = 82.5008
RA_OF_ASC_NODE = 300.5415
ARG_OF_PERICENTER = 173.2963
MEAN_ANOMALY   = 186.8516

EPHEMERIS_TYPE = 0
CLASSIFICATION_TYPE = U
NORAD_CAT_ID   = 17912
ELEMENT_SET_NO = 999
REV_AT_EPOCH   = 7864
BSTAR          = .67928486E-4
MEAN_MOTION_DOT = .61E-5
MEAN_MOTION_DDOT = 0

CCSDS_OMM_VERS = 2.0
CREATION_DATE  = 
ORIGINATOR     = 

OBJECT_NAME    = COSMOS 1844
OBJECT_ID      = 1987-041A
CENTER_NAME    = EARTH
REF_FRAME      = TEME
TIME_SYSTEM    = UTC
MEAN_ELEMENT_THEORY = SGP/SGP4

EPOCH          = 2026-03-05T22:26:46.256640
MEAN_MOTION    = 14.14552932
ECCENTRICITY   = .00297923
INCLINATION    = 70.8996
RA_OF_ASC_NODE = 42.0939
ARG_OF_PERICENTER = 23.4445
MEAN_ANOMALY   = 336.8027

EPHEMERIS_TYPE = 0
CLASSIFICATION_TYPE = U
NORAD_CAT_ID   = 17973
ELEMENT_SET_NO = 999
REV_AT_EPOCH   = 305
BSTAR          = -.43374836E-4
MEAN_MOTION_DOT = -.132E-5
MEAN_MOTION_DDOT = 0

CCSDS_OMM_VERS = 2.0
CREATION_DATE  = 
ORIGINATOR     = 

OBJECT_NAME    = SL-14 R/B
OBJECT_ID      = 1987-055B
CENTER_NAME    = EARTH
REF_FRAME      = TEME
TIME_SYSTEM    = UTC
MEAN_ELEMENT_THEORY = SGP/SGP4

EPOCH          = 2026-03-05T21:44:51.873216
MEAN_MOTION    = 14.85623815
ECCENTRICITY   = .00214659
INCLINATION    = 82.5030
RA_OF_ASC_NODE = 352.5961
ARG_OF_PERICENTER = 29.9520
MEAN_ANOMALY   = 330.2919

EPHEMERIS_TYPE = 0
CLASSIFICATION_TYPE = U
NORAD_CAT_ID   = 18153
ELEMENT_SET_NO = 999
REV_AT_EPOCH   = 6937
BSTAR          = .79393758E-4
MEAN_MOTION_DOT = .714E-5
MEAN_MOTION_DDOT = 0

CCSDS_OMM_VERS = 2.0
CREATION_DATE  = 
ORIGINATOR     = 

OBJECT_NAME    = COSMOS 1867
OBJECT_ID      = 1987-060A
CENTER_NAME    = EARTH
REF_FRAME      = TEME
TIME_SYSTEM    = UTC
MEAN_ELEMENT_THEORY = SGP/SGP4

EPOCH          = 2026-03-05T22:45:23.851008
MEAN_MOTION    = 14.31502400
ECCENTRICITY   = .00144398
INCLINATION    = 65.0117
RA_OF_ASC_NODE = 317.1833
ARG_OF_PERICENTER = 278.4201
MEAN_ANOMALY   = 81.5246

EPHEMERIS_TYPE = 0
CLASSIFICATION_TYPE = U
NORAD_CAT_ID   = 18187
ELEMENT_SET_NO = 999
REV_AT_EPOCH   = 1940
BSTAR          = .34462509E-4
MEAN_MOTION_DOT = -.8E-7
MEAN_MOTION_DDOT = 0

CCSDS_OMM_VERS = 2.0
CREATION_DATE  = 
ORIGINATOR     = 

OBJECT_NAME    = SL-14 R/B
OBJECT_ID      = 1988-001B
CENTER_NAME    = EARTH
REF_FRAME      = TEME
TIME_SYSTEM    = UTC
MEAN_ELEMENT_THEORY = SGP/SGP4

EPOCH          = 2026-03-05T20:00:43.021728
MEAN_MOTION    = 14.85522565
ECCENTRICITY   = .00166703
INCLINATION    = 82.5146
RA_OF_ASC_NODE = 198.9857
ARG_OF_PERICENTER = 249.4815
MEAN_ANOMALY   = 110.4612

EPHEMERIS_TYPE = 0
CLASSIFICATION_TYPE = U
NORAD_CAT_ID   = 18749
ELEMENT_SET_NO = 999
REV_AT_EPOCH   = 4145
BSTAR          = .97108884E-4
MEAN_MOTION_DOT = .864E-5
MEAN_MOTION_DDOT = 0

